{
    "links": {
        "self": "http://www.neowsapp.com/rest/v1/neo/3092316?api_key=iIulBulltgU6a56xZRHN4H3l9WmuAYTsLGpBGhQ2"
    },
    "id": "3092316",
    "neo_reference_id": "3092316",
    "name": "(2001 QL163)",
    "designation": "2001 QL163",
    "nasa_jpl_url": "http://ssd.jpl.nasa.gov/sbdb.cgi?sstr=3092316",
    "absolute_magnitude_h": 22.6,
    "estimated_diameter": {
        "kilometers": {
            "estimated_diameter_min": 0.0802703167,
            "estimated_diameter_max": 0.1794898848
        },
        "meters": {
            "estimated_diameter_min": 80.2703167283,
            "estimated_diameter_max": 179.4898847799
        },
        "miles": {
            "estimated_diameter_min": 0.049877647,
            "estimated_diameter_max": 0.1115298092
        },
        "feet": {
            "estimated_diameter_min": 263.3540659348,
            "estimated_diameter_max": 588.8775935812
        }
    },
    "is_potentially_hazardous_asteroid": false,
    "close_approach_data": [
        {
            "close_approach_date": "2001-09-10",
            "close_approach_date_full": "2001-Sep-10 10:32",
            "epoch_date_close_approach": 1000117920000,
            "relative_velocity": {
                "kilometers_per_second": "7.9266514725",
                "kilometers_per_hour": "28535.9453011795",
                "miles_per_hour": "17731.1266789468"
            },
            "miss_distance": {
                "astronomical": "0.0648006588",
                "lunar": "25.2074562732",
                "kilometers": "9694040.531076756",
                "miles": "6023597.4680849928"
            },
            "orbiting_body": "Earth"
        }
    ],
    "orbital_data": {
        "orbit_id": "8",
        "orbit_determination_date": "2017-04-06 09:16:11",
        "first_observation_date": "2001-08-25",
        "last_observation_date": "2001-09-07",
        "data_arc_in_days": 13,
        "observations_used": 21,
        "orbit_uncertainty": "8",
        "minimum_orbit_intersection": ".0570531",
        "jupiter_tisserand_invariant": "3.989",
        "epoch_osculation": "2452151.5",
        "eccentricity": ".4425397805650046",
        "semi_major_axis": "1.760035648141599",
        "inclination": "8.166026578668154",
        "ascending_node_longitude": "324.4827940577683",
        "orbital_period": "852.8656500775593",
        "perihelion_distance": ".9811498586264301",
        "perihelion_argument": "54.32515477936878",
        "aphelion_distance": "2.538921437656768",
        "perihelion_time": "2452190.389800184814",
        "mean_anomaly": "343.5843686924666",
        "mean_motion": ".4221063422676968",
        "equinox": "J2000",
        "orbit_class": {
            "orbit_class_type": "APO",
            "orbit_class_description": "Near-Earth asteroid orbits which cross the Earth’s orbit similar to that of 1862 Apollo",
            "orbit_class_range": "a (semi-major axis) > 1.0 AU; q (perihelion) < 1.017 AU"
        }
    },
    "is_sentry_object": false
}